INTELSAT 902 (IS-902)   
1 26900U 01039A   26198.47188062 -.00000295  00000+0  00000+0 0  9997
2 26900   6.1904  71.4099 0004189  44.3428 299.3155  1.00271814 90991
INTELSAT 904 (IS-904)   
1 27380U 02007A   26198.40425155 -.00000238  00000+0  00000+0 0  9993
2 27380   6.9936  68.8185 0005386  26.8195 313.6337  1.00270447 52068
DIRECTV 5 (TEMPO 1)     
1 27426U 02023A   26198.60254741 -.00000069  00000+0  00000+0 0  9997
2 27426   4.9537  74.9297 0003190  48.7166 278.5717  1.00271724 88427
INTELSAT 905 (IS-905)   
1 27438U 02027A   26198.39141907  .00000081  00000+0  00000+0 0  9992
2 27438   6.8274  69.4323 0003511  48.3793 181.0952  1.00272069 51665
GALAXY 3C (G-3C)        
1 27445U 02030A   26198.32044907 -.00000164  00000+0  00000+0 0  9992
2 27445   3.8099  77.5856 0001650  32.8722 205.2036  1.00270814 46794
INTELSAT 906 (IS-906)   
1 27513U 02041A   26198.63703701  .00000001  00000+0  00000+0 0  9997
2 27513   5.8768  72.5432 0003723  28.0506 128.3572  1.00273647 87332
GALAXY 13 (HORIZONS-1)  
1 27954U 03044A   26198.59466071  .00000122  00000+0  00000+0 0  9995
2 27954   1.4950  83.4714 0002117  34.4184 241.5824  1.00272362 46874
INTELSAT 10-02          
1 28358U 04022A   26198.62412751 -.00000021  00000+0  00000+0 0  9990
2 28358   0.0556 255.0697 0000219   5.8120 258.2367  1.00270229 80864
DIRECTV 8               
1 28659U 05019A   26198.60072741  .00000000  00000+0  00000+0 0  9996
2 28659   0.0222  65.2513 0003092  55.8500 271.5299  1.00270458 77373
GALAXY 28 (G-28)        
1 28702U 05022A   26198.61892749 -.00000211  00000+0  00000+0 0  9993
2 28702   3.3741  78.5562 0002492  31.4507  21.1434  1.00271437 52286
GALAXY 16 (G-16)        
1 29236U 06023A   26198.60471409 -.00000136  00000+0  00000+0 0  9999
2 29236   0.0244 150.3278 0002577 325.3288 298.4463  1.00271480 73270
DIRECTV 9S              
1 29494U 06043A   26198.60428075 -.00000124  00000+0  00000+0 0  9995
2 29494   2.4975  80.5356 0005002  32.3023 298.9181  1.00271436 51686
GALAXY 17 (G-17)        
1 31307U 07016B   26198.60748744 -.00000217  00000+0  00000+0 0  9993
2 31307   3.0468  79.5166 0003648  35.9755 313.6002  1.00271358 70106
INTELSAT 11 (IS-11)     
1 32253U 07044B   26198.40901824 -.00000210  00000+0  00000+0 0  9996
2 32253   3.6423  78.3024 0004297  99.9926 257.0586  0.99052783 68746
HORIZONS-2              
1 32388U 07063B   26198.53844794 -.00000264  00000+0  00000+0 0  9991
2 32388   2.6786  80.2541 0003549  17.4103 317.7169  1.00273110 68117
DIRECTV 11              
1 32729U 08013A   26198.46217390 -.00000135  00000+0  00000+0 0  9991
2 32729   0.0057 267.0547 0000151 297.3767 158.0387  1.00270476 45891
GALAXY 18 (G-18)        
1 32951U 08024A   26198.59994740  .00000016  00000+0  00000+0 0  9992
2 32951   0.0165  78.4344 0002879  36.8080 273.1310  1.00271154 46159
GALAXY 19 (G-19)        
1 33376U 08045A   26198.60514743 -.00000148  00000+0  00000+0 0  9997
2 33376   0.0501 242.9368 0002438 243.4882 289.8464  1.00270940 65209
FM-5                    
1 35493U 09034A   26198.53602126 -.00000209  00000+0  00000+0 0  9991
2 35493   0.0504 254.5778 0000895 104.1827  43.3849  1.00268994 46941
INTELSAT 14 (IS-14)     
1 36097U 09064A   26198.58062753  .00000000  00000+0  00000+0 0  9994
2 36097   0.0172  42.8362 0002425  74.7534 341.8399  1.00270040 60912
INTELSAT 15 (IS-15)     
1 36106U 09067A   26198.64119703  .00000000  00000+0  00000+0 0  9993
2 36106   0.0203  46.9456 0002261  68.7098 135.7866  1.00270400 41539
DIRECTV 12              
1 36131U 09075A   26198.60402075 -.00000113  00000+0  00000+0 0  9999
2 36131   0.0447 222.1598 0000254 342.1549 205.8215  1.00272808 46853
INTELSAT 16 (IS-16)     
1 36397U 10006A   26198.55981197 -.00000254  00000+0  00000+0 0  9996
2 36397   0.0162  59.1351 0002326  76.6378 284.9205  1.00271953 59959
XM-5                    
1 37185U 10053A   26198.53021457 -.00000034  00000+0  00000+0 0  9992
2 37185   0.0620 264.4394 0001598 309.7763 156.8058  1.00279095 57787
INTELSAT 17 (IS-17)     
1 37238U 10065B   26198.63738368 -.00000011  00000+0  00000+0 0  9996
2 37238   0.0048  77.9507 0002546  49.2695 103.6815  1.00272303 53554
INTELSAT 28 (IS-28)     
1 37392U 11016A   26198.40416488 -.00000236  00000+0  00000+0 0  9994
2 37392   1.8826  82.2557 0003765  40.7743 285.9811  1.00271929 53582
INTELSAT 18 (IS-18)     
1 37834U 11056A   26198.56294789  .00000043  00000+0  00000+0 0  9999
2 37834   0.0446 250.7447 0001836 237.8987 189.3875  1.00272563 54110
INTELSAT 22 (IS-22)     
1 38098U 12011A   26198.63859701 -.00000068  00000+0  00000+0 0  9991
2 38098   0.0198  51.8095 0001840  75.5737 110.0623  1.00271947  7497
INTELSAT 19 (IS-19)     
1 38356U 12030A   26198.58590733 -.00000066  00000+0  00000+0 0  9998
2 38356   0.0190  44.2337 0002884  71.8923 196.1845  1.00271767 50754
INTELSAT 20 (IS-20)     
1 38740U 12043A   26198.63790368 -.00000034  00000+0  00000+0 0  9996
2 38740   0.0124  65.4071 0001289 115.9588  52.2353  1.00271078 51058
INTELSAT 21 (IS-21)     
1 38749U 12045A   26198.47023395 -.00000295  00000+0  00000+0 0  9997
2 38749   0.0477 245.6691 0001627 241.6437 279.2593  1.00272308 50822
INTELSAT 23 (IS-23)     
1 38867U 12057A   26198.56834093 -.00000294  00000+0  00000+0 0  9995
2 38867   0.0156 321.6968 0000696 290.4436 194.8096  1.00263006 50268
FM-6                    
1 39360U 13058A   26198.60133407 -.00000025  00000+0  00000+0 0  9994
2 39360   0.0095  31.7846 0001620 150.7443 213.0085  1.00271319 46372
INTELSAT 30 (IS-30)     
1 40271U 14062A   26198.39168481 -.00000161  00000+0  00000+0 0  9990
2 40271   0.0185  56.4382 0001508 335.3570 309.3685  1.00273680  7095
DIRECTV 14              
1 40333U 14078B   26198.60471409 -.00000135  00000+0  00000+0 0  9998
2 40333   0.0105  45.4379 0000330 318.7570  49.6761  1.00269935 42341
DIRECTV 15              
1 40663U 15026A   26198.60393409 -.00000112  00000+0  00000+0 0  9996
2 40663   0.0230  78.6192 0000159 321.3364   9.9880  1.00272685 40768
SKY MEXICO-1            
1 40664U 15026B   26198.39489150 -.00000244  00000+0  00000+0 0  9998
2 40664   0.0130  67.3239 0002330  65.4002 225.8447  1.00273000 40752
INTELSAT 34 (IS-34)     
1 40874U 15039A   26198.56598794 -.00000295  00000+0  00000+0 0  9995
2 40874   0.0102  26.4718 0000437 330.4627  86.7015  1.00271968 39930
INTELSAT 31 (IS-31)     
1 41581U 16035A   26198.36919520 -.00000160  00000+0  00000+0 0  9991
2 41581   0.0060  13.9840 0001057 283.2475  35.8039  1.00270166 36983
INTELSAT 36 (IS-36)     
1 41747U 16053A   26198.42401164 -.00000034  00000+0  00000+0 0  9992
2 41747   0.0105  39.2752 0002293 305.0932 171.9939  1.00271735 36269
INTELSAT 32E (IS-32E)   
1 41945U 17007B   26198.47309396  .00000000  00000+0  00000+0 0  9993
2 41945   0.0204  56.8085 0000706 317.0659  48.5532  1.00266326 34524
INTELSAT 35E (IS-35E)   
1 42818U 17041A   26198.47491397 -.00000248  00000+0  00000+0 0  9999
2 42818   0.0189  50.9911 0001883  67.1738 313.5877  1.00272841 33117
INTELSAT 37E (IS-37E)   
1 42950U 17059A   26198.62066083 -.00000150  00000+0  00000+0 0  9994
2 42950   0.0129  77.1082 0002607  42.6588  21.0913  1.00272848 32370
AZERSPACE 2 (IS-38)     
1 43632U 18074A   26198.49068737  .00000000  00000+0  00000+0 0  9996
2 43632   0.0225  57.4459 0001456  53.1326  46.4993  1.00270637 28752
HORIZONS-3E             
1 43633U 18074B   26198.56850558 -.00000040  00000+0  00000+0 0  9990
2 43633   0.0376 250.7885 0000738  38.1522  20.0889  1.00271426 28641
AT&T T-16               
1 44333U 19034A   26198.46182723 -.00000125  00000+0  00000+0 0  9990
2 44333   0.0143  73.6211 0000663 281.6891   5.3659  1.00274290 25939
INTELSAT 39 (IS-39)     
1 44476U 19049B   26198.63953277  .00000000  00000+0  00000+0 0  9994
2 44476   0.0202  56.4563 0000935 295.7650 235.4201  1.00269273 25432
GALAXY 30 (G-30)        
1 46114U 20056C   26198.59960073  .00000000  00000+0  00000+0 0  9992
2 46114   0.0225  59.8270 0002254  58.8872 267.5676  1.00270960 21590
GALAXY 33 (G-33)        
1 54026U 22128A   26198.59804072  .00000070  00000+0  00000+0 0  9998
2 54026   0.0155  60.9088 0001837  52.7680 264.0152  1.00269706 14048
GALAXY 34 (G-34)        
1 54027U 22128B   26198.59882073  .00000050  00000+0  00000+0 0  9994
2 54027   0.0093  67.4629 0001391  57.0681 257.4459  1.00271408 14214
GALAXY 31 (G-31)        
1 54243U 22153A   26198.60038073  .00000004  00000+0  00000+0 0  9996
2 54243   0.0182  92.8327 0001082  26.6125 271.0865  1.00271946  7438
GALAXY 32 (G-32)        
1 54244U 22153B   26198.60618743 -.00000184  00000+0  00000+0 0  9995
2 54244   0.0114  49.3662 0001390 356.7462  16.5326  1.00272408 13442
GALAXY 35 (G-35)        
1 54741U 22170A   26198.60592743 -.00000172  00000+0  00000+0 0  9994
2 54741   0.0139  85.1291 0001859  31.1941 304.1159  1.00272222 13199
GALAXY 36 (G-36)        
1 54742U 22170B   26198.60670743 -.00000195  00000+0  00000+0 0  9997
2 54742   0.0161 139.7187 0002605 318.8231 326.2904  1.00271838 13074
GALAXY 37 (G-37)        
1 57493U 23112A   26198.59916740  .00000000  00000+0  00000+0 0  9992
2 57493   0.0198  55.8349 0002018  59.5726 268.7145  1.00269990 10849
